          "line2": "2 25544  51.6428 233.1130 0007203 133.2497 304.4957 15.50977346179266",
          "line2": "2 25544  51.6427 232.1225 0007140 133.6464 340.2191 15.50975066179295",
          "line2": "2 25544  51.6427 230.8100 0007198 135.2993  15.8627 15.50973761179334",
          "line2": "2 25544  51.6427 230.2099 0007198 135.7458 330.9010 15.50974329179356",
          "line2": "2 25544  51.6428 230.1777 0007180 135.6314   7.5804 15.50974446179358",
          "line2": "2 25544  51.6428 229.0432 0007169 136.3782 204.0812 15.50974661179382",
          "line2": "2 25544  51.6427 227.7181 0007035 136.9706 255.5990 15.50975550179433",
          "line2": "2 25544  51.6427 227.3282 0007129 137.7345 333.7018 15.50975791179441",
          "line2": "2 25544  51.6428 226.3071 0007121 138.6922  42.7480 15.50975546179471",
          "line2": "2 25544  51.6429 225.6958 0007127 139.0496  10.7419 15.50976019179490",
          "line2": "2 25544  51.6430 225.3884 0007127 139.2326 356.7041 15.50976216179506",
          "line2": "2 25544  51.6430 223.9170 0007121 140.3035 212.0506 15.50976656179544",
          "line2": "2 25544  51.6430 223.1943 0007100 140.6023 305.4594 15.50977597179573",
          "line2": "2 25544  51.6431 222.2334 0006870 141.4888 315.1184 15.50982272179602",
          "line2": "2 25544  51.6433 221.2959 0006905 142.2289 290.1272 15.50980004179633",
          "line2": "2 25544  51.6432 220.6029 0006951 142.2730 347.8495 15.50983368179650",
          "line2": "2 25544  51.6431 220.2670 0006891 142.4236   5.3742 15.50982713179668",
          "line2": "2 25544  51.6432 219.1305 0006841 142.7136 205.0594 15.50983042179691",
          "line2": "2 25544  51.6428 217.9641 0006852 143.7726  76.5578 15.50983109179735",
          "line2": "2 25544  51.6428 217.4177 0006890 143.9979 332.0943 15.50980434179754",
          "line2": "2 25544  51.6431 216.4394 0006962 145.0711 351.0890 15.50979565179783",
          "line2": "2 25544  51.6432 215.7804 0006946 145.1590  13.1665 15.50980733179808",
          "line2": "2 25544  51.6432 214.6630 0006951 146.0156 190.2537 15.50981102179836",
          "line2": "2 25544  51.6433 214.3224 0006977 146.6619 214.5057 15.50981592179853",
          "line2": "2 25544  51.6431 213.1799 0006954 147.4827  59.8336 15.50982199179887",
          "line2": "2 25544  51.6429 212.0008 0007027 148.2497 307.3266 15.50981430179924",
          "line2": "2 25544  51.6429 211.3536 0007069 148.7846 315.4440 15.50981496179949",
          "line2": "2 25544  51.6431 210.6836 0007017 149.3688 349.0941 15.50982016179961",
          "line2": "2 25544  51.6431 209.5460 0006990 150.2578 188.8731 15.50982448179997",
          "line2": "2 25544  51.6431 209.1548 0006988 150.5399 268.9840 15.50982589180013",
