OBJECT_NAME,OBJECT_ID,EPOCH,MEAN_MOTION,ECCENTRICITY,INCLINATION,RA_OF_ASC_NODE,ARG_OF_PERICENTER,MEAN_ANOMALY,EPHEMERIS_TYPE,CLASSIFICATION_TYPE,NORAD_CAT_ID,ELEMENT_SET_NO,REV_AT_EPOCH,BSTAR,MEAN_MOTION_DOT,MEAN_MOTION_DDOT
ISS (ZARYA),1998-067A,2019-07-13T00:25:59.183904,15.50977346,.0007203,51.6428,233.1130,133.2497,304.4957,0,U,25544,999,17926,.36692E-4,.1705E-4,0
ISS (ZARYA),1998-067A,2019-07-13T05:13:38.853120,15.50975066,.000714,51.6427,232.1225,133.6464,340.2191,0,U,25544,999,17929,.1667E-4,.521E-5,0
ISS (ZARYA),1998-067A,2019-07-13T11:34:23.680128,15.50973761,.0007198,51.6427,230.8100,135.2993,15.8627,0,U,25544,999,17933,.67902E-5,-.64E-6,0
ISS (ZARYA),1998-067A,2019-07-13T14:28:29.308800,15.50974329,.0007198,51.6427,230.2099,135.7458,330.9010,0,U,25544,999,17935,.93705E-5,.89E-6,0
ISS (ZARYA),1998-067A,2019-07-13T14:37:54.744960,15.50974446,.000718,51.6428,230.1777,135.6314,7.5804,0,U,25544,999,17935,.98107E-5,.115E-5,0
ISS (ZARYA),1998-067A,2019-07-13T20:07:06.000096,15.50974661,.0007169,51.6428,229.0432,136.3782,204.0812,0,U,25544,999,17938,.95665E-5,.1E-5,0
ISS (ZARYA),1998-067A,2019-07-14T02:31:39.857952,15.50975550,.0007035,51.6427,227.7181,136.9706,255.5990,0,U,25544,999,17943,.12389E-4,.267E-5,0
ISS (ZARYA),1998-067A,2019-07-14T04:24:46.419840,15.50975791,.0007129,51.6427,227.3282,137.7345,333.7018,0,U,25544,999,17944,.1257E-4,.278E-5,0
ISS (ZARYA),1998-067A,2019-07-14T09:21:09.999648,15.50975546,.0007121,51.6428,226.3071,138.6922,42.7480,0,U,25544,999,17947,.10409E-4,.15E-5,0
ISS (ZARYA),1998-067A,2019-07-14T12:18:34.583328,15.50976019,.0007127,51.6429,225.6958,139.0496,10.7419,0,U,25544,999,17949,.11622E-4,.222E-5,0
ISS (ZARYA),1998-067A,2019-07-14T13:47:47.333760,15.50976216,.0007127,51.6430,225.3884,139.2326,356.7041,0,U,25544,999,17950,.12041E-4,.247E-5,0
ISS (ZARYA),1998-067A,2019-07-14T20:54:41.999616,15.50976656,.0007121,51.6430,223.9170,140.3035,212.0506,0,U,25544,999,17954,.12103E-4,.25E-5,0
ISS (ZARYA),1998-067A,2019-07-15T00:24:25.049376,15.50977597,.00071,51.6430,223.1943,140.6023,305.4594,0,U,25544,999,17957,.14577E-4,.397E-5,0
ISS (ZARYA),1998-067A,2019-07-15T05:05:29.119776,15.50982272,.000687,51.6431,222.2334,141.4888,315.1184,0,U,25544,999,17960,.54231E-4,.2744E-4,0
ISS (ZARYA),1998-067A,2019-07-15T09:37:35.127264,15.50980004,.0006905,51.6433,221.2959,142.2289,290.1272,0,U,25544,999,17963,.23132E-4,.903E-5,0
ISS (ZARYA),1998-067A,2019-07-15T12:58:02.320896,15.50983368,.0006951,51.6432,220.6029,142.2730,347.8495,0,U,25544,999,17965,.51544E-4,.2585E-4,0
ISS (ZARYA),1998-067A,2019-07-15T14:35:22.648128,15.50982713,.0006891,51.6431,220.2670,142.4236,5.3742,0,U,25544,999,17966,.41849E-4,.2011E-4,0
ISS (ZARYA),1998-067A,2019-07-15T20:05:15.999936,15.50983042,.0006841,51.6432,219.1305,142.7136,205.0594,0,U,25544,999,17969,.35772E-4,.1651E-4,0
ISS (ZARYA),1998-067A,2019-07-16T01:43:33.174336,15.50983109,.0006852,51.6428,217.9641,143.7726,76.5578,0,U,25544,999,17973,.29479E-4,.1279E-4,0
ISS (ZARYA),1998-067A,2019-07-16T04:22:15.316608,15.50980434,.000689,51.6428,217.4177,143.9979,332.0943,0,U,25544,999,17975,.11407E-4,.21E-5,0
ISS (ZARYA),1998-067A,2019-07-16T09:05:46.629888,15.50979565,.0006962,51.6431,216.4394,145.0711,351.0890,0,U,25544,999,17978,.53147E-5,-.151E-5,0
ISS (ZARYA),1998-067A,2019-07-16T12:17:03.345792,15.50980733,.0006946,51.6432,215.7804,145.1590,13.1665,0,U,25544,999,17980,.11306E-4,.204E-5,0
ISS (ZARYA),1998-067A,2019-07-16T17:41:15.999936,15.50981102,.0006951,51.6432,214.6630,146.0156,190.2537,0,U,25544,999,17983,.11644E-4,.224E-5,0
ISS (ZARYA),1998-067A,2019-07-16T19:20:28.000032,15.50981592,.0006977,51.6433,214.3224,146.6619,214.5057,0,U,25544,999,17985,.13615E-4,.34E-5,0
ISS (ZARYA),1998-067A,2019-07-17T00:51:56.792736,15.50982199,.0006954,51.6431,213.1799,147.4827,59.8336,0,U,25544,999,17988,.14696E-4,.404E-5,0
ISS (ZARYA),1998-067A,2019-07-17T06:34:16.848768,15.50981430,.0007027,51.6429,212.0008,148.2497,307.3266,0,U,25544,999,17992,.10778E-4,.172E-5,0
ISS (ZARYA),1998-067A,2019-07-17T09:42:04.614912,15.50981496,.0007069,51.6429,211.3536,148.7846,315.4440,0,U,25544,999,17994,.10398E-4,.15E-5,0
ISS (ZARYA),1998-067A,2019-07-17T12:56:27.958272,15.50982016,.0007017,51.6431,210.6836,149.3688,349.0941,0,U,25544,999,17996,.10889E-4,.179E-5,0
ISS (ZARYA),1998-067A,2019-07-17T18:26:32.000352,15.50982448,.000699,51.6431,209.5460,150.2578,188.8731,0,U,25544,999,17999,.11421E-4,.21E-5,0
ISS (ZARYA),1998-067A,2019-07-17T20:20:02.163264,15.50982589,.0006988,51.6431,209.1548,150.5399,268.9840,0,U,25544,999,18001,.11545E-4,.218E-5,0
